SL-8 R/B                
1 21088U 91006B   26073.55349169  .00000069  00000+0  53956-4 0  9991
2 21088  82.9464 166.4302 0022788  25.0957 345.8145 13.77494931764747
OKEAN-3                 
1 21397U 91039A   26073.66610946  .00004258  00000+0  29890-3 0  9999
2 21397  82.5202 332.0231 0013489 318.7791  41.2416 15.04847916865785
COSMOS 2151             
1 21422U 91042A   26073.61938996  .00002976  00000+0  23607-3 0  9990
2 21422  82.4929  78.9192 0013721  48.5683 311.6717 15.00127307863932
SL-14 R/B               
1 21423U 91042B   26073.48454008  .00000578  00000+0  70050-4 0  9994
2 21423  82.4933 215.6861 0016054 221.7557 138.2433 14.81835276853787
ERS-1                   
1 21574U 91050A   26073.56309803  .00000383  00000+0  13723-3 0  9998
2 21574  98.7877  91.9201 0031902 185.9026 174.1789 14.39453721816433
ARIANE 40 R/B           
1 21610U 91050F   26073.60245579  .00000357  00000+0  11919-3 0  9999
2 21610  98.2003 125.6543 0004198  70.4829 289.6815 14.42897754819707
INTERCOSMOS 25          
1 21819U 91086A   26073.61085169  .00002322  00000+0  44808-3 0  9994
2 21819  82.6046 307.0338 1486870 106.3329 270.6016 12.12018447497283
SL-8 R/B                
1 21876U 92008B   26073.59466392  .00000010  00000+0 -61799-5 0  9993
2 21876  82.9221 264.1284 0035731 120.0300 305.1370 13.75969758710098
SL-8 R/B                
1 21938U 92020B   26073.65698146  .00000053  00000+0  39103-4 0  9996
2 21938  82.9329 150.0739 0027563 284.3106 228.3330 13.75549949701814
USA 81                  
1 21949U 92023A   26073.61870083  .00000191  00000+0  63189-4 0  9993
2 21949  85.0075 128.5975 0002330  73.1038 287.0410 14.32369724 95499
COSMOS 2219             
1 22219U 92076A   26073.26044657 -.00000005  00000+0  22289-4 0  9994
2 22219  71.0641   8.5136 0018703 200.6809 159.3558 14.14093600719027
SL-16 R/B               
1 22220U 92076B   26073.55829927 -.00000023  00000+0  12571-4 0  9992
2 22220  71.0007 178.1188 0010516  87.3459 284.5484 14.16859176722529
COSMOS 2221             
1 22236U 92080A   26073.58629042  .00002286  00000+0  20003-3 0  9993
2 22236  82.5006 274.3896 0014466 170.6548 189.4946 14.96223091781520
SL-16 R/B               
1 22285U 92093B   26073.47440271 -.00000054  00000+0 -34702-5 0  9990
2 22285  71.0241 354.2224 0006317 288.8537  71.1901 14.15447032713838
COSMOS 2228             
1 22286U 92094A   26073.59939671  .00003022  00000+0  25837-3 0  9995
2 22286  82.5159 232.6087 0016626 286.7995  73.1403 14.97219602776792
SL-16 R/B               
1 22566U 93016B   26073.58596539 -.00000101  00000+0 -27162-4 0  9993
2 22566  71.0082 204.8974 0012125 307.6583  52.3439 14.15309346702863
COSMOS 2242             
1 22626U 93024A   26073.58367943  .00002667  00000+0  23172-3 0  9997
2 22626  82.5151 262.0340 0014962 291.0383  68.9239 14.96571661781129
