[{"OBJECT_NAME":"SL-8 R/B","OBJECT_ID":"1991-006B","EPOCH":"2026-03-14T13:17:01.682016","MEAN_MOTION":13.77494931,"ECCENTRICITY":0.00227888,"INCLINATION":82.9464,"RA_OF_ASC_NODE":166.4302,"ARG_OF_PERICENTER":25.0957,"MEAN_ANOMALY":345.8145,"EPHEMERIS_TYPE":0,"CLASSIFICATION_TYPE":"U","NORAD_CAT_ID":21088,"ELEMENT_SET_NO":999,"REV_AT_EPOCH":76474,"BSTAR":5.3955956e-5,"MEAN_MOTION_DOT":6.9e-7,"MEAN_MOTION_DDOT":0},{"OBJECT_NAME":"OKEAN-3","OBJECT_ID":"1991-039A","EPOCH":"2026-03-14T15:59:11.857344","MEAN_MOTION":15.04847916,"ECCENTRICITY":0.00134891,"INCLINATION":82.5202,"RA_OF_ASC_NODE":332.0231,"ARG_OF_PERICENTER":318.7791,"MEAN_ANOMALY":41.2416,"EPHEMERIS_TYPE":0,"CLASSIFICATION_TYPE":"U","NORAD_CAT_ID":21397,"ELEMENT_SET_NO":999,"REV_AT_EPOCH":86578,"BSTAR":0.00029890067,"MEAN_MOTION_DOT":4.258e-5,"MEAN_MOTION_DDOT":0},{"OBJECT_NAME":"COSMOS 2151","OBJECT_ID":"1991-042A","EPOCH":"2026-03-14T14:51:55.292544","MEAN_MOTION":15.00127307,"ECCENTRICITY":0.00137214,"INCLINATION":82.4929,"RA_OF_ASC_NODE":78.9192,"ARG_OF_PERICENTER":48.5683,"MEAN_ANOMALY":311.6717,"EPHEMERIS_TYPE":0,"CLASSIFICATION_TYPE":"U","NORAD_CAT_ID":21422,"ELEMENT_SET_NO":999,"REV_AT_EPOCH":86393,"BSTAR":0.00023606744,"MEAN_MOTION_DOT":2.976e-5,"MEAN_MOTION_DDOT":0},{"OBJECT_NAME":"SL-14 R/B","OBJECT_ID":"1991-042B","EPOCH":"2026-03-14T11:37:44.262912","MEAN_MOTION":14.81835276,"ECCENTRICITY":0.00160547,"INCLINATION":82.4933,"RA_OF_ASC_NODE":215.6861,"ARG_OF_PERICENTER":221.7557,"MEAN_ANOMALY":138.2433,"EPHEMERIS_TYPE":0,"CLASSIFICATION_TYPE":"U","NORAD_CAT_ID":21423,"ELEMENT_SET_NO":999,"REV_AT_EPOCH":85378,"BSTAR":7.005012e-5,"MEAN_MOTION_DOT":5.78e-6,"MEAN_MOTION_DDOT":0},{"OBJECT_NAME":"ERS-1","OBJECT_ID":"1991-050A","EPOCH":"2026-03-14T13:30:51.669792","MEAN_MOTION":14.39453721,"ECCENTRICITY":0.00319027,"INCLINATION":98.7877,"RA_OF_ASC_NODE":91.9201,"ARG_OF_PERICENTER":185.9026,"MEAN_ANOMALY":174.1789,"EPHEMERIS_TYPE":0,"CLASSIFICATION_TYPE":"U","NORAD_CAT_ID":21574,"ELEMENT_SET_NO":999,"REV_AT_EPOCH":81643,"BSTAR":0.00013722814,"MEAN_MOTION_DOT":3.83e-6,"MEAN_MOTION_DDOT":0},{"OBJECT_NAME":"ARIANE 40 R/B","OBJECT_ID":"1991-050F","EPOCH":"2026-03-14T14:27:32.180256","MEAN_MOTION":14.42897754,"ECCENTRICITY":0.00041984,"INCLINATION":98.2003,"RA_OF_ASC_NODE":125.6543,"ARG_OF_PERICENTER":70.4829,"MEAN_ANOMALY":289.6815,"EPHEMERIS_TYPE":0,"CLASSIFICATION_TYPE":"U","NORAD_CAT_ID":21610,"ELEMENT_SET_NO":999,"REV_AT_EPOCH":81970,"BSTAR":0.00011918554,"MEAN_MOTION_DOT":3.57e-6,"MEAN_MOTION_DDOT":0},{"OBJECT_NAME":"INTERCOSMOS 25","OBJECT_ID":"1991-086A","EPOCH":"2026-03-14T14:39:37.586016","MEAN_MOTION":12.12018447,"ECCENTRICITY":0.14868706,"INCLINATION":82.6046,"RA_OF_ASC_NODE":307.0338,"ARG_OF_PERICENTER":106.3329,"MEAN_ANOMALY":270.6016,"EPHEMERIS_TYPE":0,"CLASSIFICATION_TYPE":"U","NORAD_CAT_ID":21819,"ELEMENT_SET_NO":999,"REV_AT_EPOCH":49728,"BSTAR":0.00044808486,"MEAN_MOTION_DOT":2.322e-5,"MEAN_MOTION_DDOT":0},{"OBJECT_NAME":"SL-8 R/B","OBJECT_ID":"1992-008B","EPOCH":"2026-03-14T14:16:18.962688","MEAN_MOTION":13.75969758,"ECCENTRICITY":0.00357313,"INCLINATION":82.9221,"RA_OF_ASC_NODE":264.1284,"ARG_OF_PERICENTER":120.03,"MEAN_ANOMALY":305.137,"EPHEMERIS_TYPE":0,"CLASSIFICATION_TYPE":"U","NORAD_CAT_ID":21876,"ELEMENT_SET_NO":999,"REV_AT_EPOCH":71009,"BSTAR":-6.179854e-6,"MEAN_MOTION_DOT":1.0e-7,"MEAN_MOTION_DDOT":0},{"OBJECT_NAME":"SL-8 R/B","OBJECT_ID":"1992-020B","EPOCH":"2026-03-14T15:46:03.198144","MEAN_MOTION":13.75549949,"ECCENTRICITY":0.0027563,"INCLINATION":82.9329,"RA_OF_ASC_NODE":150.0739,"ARG_OF_PERICENTER":284.3106,"MEAN_ANOMALY":228.333,"EPHEMERIS_TYPE":0,"CLASSIFICATION_TYPE":"U","NORAD_CAT_ID":21938,"ELEMENT_SET_NO":999,"REV_AT_EPOCH":70181,"BSTAR":3.9103382e-5,"MEAN_MOTION_DOT":5.3e-7,"MEAN_MOTION_DDOT":0},{"OBJECT_NAME":"USA 81","OBJECT_ID":"1992-023A","EPOCH":"2026-03-14T14:50:55.751712","MEAN_MOTION":14.32369724,"ECCENTRICITY":0.00023301,"INCLINATION":85.0075,"RA_OF_ASC_NODE":128.5975,"ARG_OF_PERICENTER":73.1038,"MEAN_ANOMALY":287.041,"EPHEMERIS_TYPE":0,"CLASSIFICATION_TYPE":"U","NORAD_CAT_ID":21949,"ELEMENT_SET_NO":999,"REV_AT_EPOCH":9549,"BSTAR":6.3188606e-5,"MEAN_MOTION_DOT":1.91e-6,"MEAN_MOTION_DDOT":0},{"OBJECT_NAME":"COSMOS 2219","OBJECT_ID":"1992-076A","EPOCH":"2026-03-14T06:15:02.583648","MEAN_MOTION":14.140936,"ECCENTRICITY":0.00187039,"INCLINATION":71.0641,"RA_OF_ASC_NODE":8.5136,"ARG_OF_PERICENTER":200.6809,"MEAN_ANOMALY":159.3558,"EPHEMERIS_TYPE":0,"CLASSIFICATION_TYPE":"U","NORAD_CAT_ID":22219,"ELEMENT_SET_NO":999,"REV_AT_EPOCH":71902,"BSTAR":2.2289361e-5,"MEAN_MOTION_DOT":-5.0e-8,"MEAN_MOTION_DDOT":0},{"OBJECT_NAME":"SL-16 R/B","OBJECT_ID":"1992-076B","EPOCH":"2026-03-14T13:23:57.056928","MEAN_MOTION":14.16859176,"ECCENTRICITY":0.00105165,"INCLINATION":71.0007,"RA_OF_ASC_NODE":178.1188,"ARG_OF_PERICENTER":87.3459,"MEAN_ANOMALY":284.5484,"EPHEMERIS_TYPE":0,"CLASSIFICATION_TYPE":"U","NORAD_CAT_ID":22220,"ELEMENT_SET_NO":999,"REV_AT_EPOCH":72252,"BSTAR":1.257147e-5,"MEAN_MOTION_DOT":-2.3e-7,"MEAN_MOTION_DDOT":0},{"OBJECT_NAME":"COSMOS 2221","OBJECT_ID":"1992-080A","EPOCH":"2026-03-14T14:04:15.492288","MEAN_MOTION":14.96223091,"ECCENTRICITY":0.00144662,"INCLINATION":82.5006,"RA_OF_ASC_NODE":274.3896,"ARG_OF_PERICENTER":170.6548,"MEAN_ANOMALY":189.4946,"EPHEMERIS_TYPE":0,"CLASSIFICATION_TYPE":"U","NORAD_CAT_ID":22236,"ELEMENT_SET_NO":999,"REV_AT_EPOCH":78152,"BSTAR":0.00020003019,"MEAN_MOTION_DOT":2.286e-5,"MEAN_MOTION_DDOT":0},{"OBJECT_NAME":"SL-16 R/B","OBJECT_ID":"1992-093B","EPOCH":"2026-03-14T11:23:08.394144","MEAN_MOTION":14.15447032,"ECCENTRICITY":0.00063173,"INCLINATION":71.0241,"RA_OF_ASC_NODE":354.2224,"ARG_OF_PERICENTER":288.8537,"MEAN_ANOMALY":71.1901,"EPHEMERIS_TYPE":0,"CLASSIFICATION_TYPE":"U","NORAD_CAT_ID":22285,"ELEMENT_SET_NO":999,"REV_AT_EPOCH":71383,"BSTAR":-3.470153e-6,"MEAN_MOTION_DOT":-5.4e-7,"MEAN_MOTION_DDOT":0},{"OBJECT_NAME":"COSMOS 2228","OBJECT_ID":"1992-094A","EPOCH":"2026-03-14T14:23:07.875744","MEAN_MOTION":14.97219602,"ECCENTRICITY":0.0016626,"INCLINATION":82.5159,"RA_OF_ASC_NODE":232.6087,"ARG_OF_PERICENTER":286.7995,"MEAN_ANOMALY":73.1403,"EPHEMERIS_TYPE":0,"CLASSIFICATION_TYPE":"U","NORAD_CAT_ID":22286,"ELEMENT_SET_NO":999,"REV_AT_EPOCH":77679,"BSTAR":0.00025837178,"MEAN_MOTION_DOT":3.022e-5,"MEAN_MOTION_DDOT":0},{"OBJECT_NAME":"SL-16 R/B","OBJECT_ID":"1993-016B","EPOCH":"2026-03-14T14:03:47.409696","MEAN_MOTION":14.15309346,"ECCENTRICITY":0.00121252,"INCLINATION":71.0082,"RA_OF_ASC_NODE":204.8974,"ARG_OF_PERICENTER":307.6583,"MEAN_ANOMALY":52.3439,"EPHEMERIS_TYPE":0,"CLASSIFICATION_TYPE":"U","NORAD_CAT_ID":22566,"ELEMENT_SET_NO":999,"REV_AT_EPOCH":70286,"BSTAR":-2.7161812e-5,"MEAN_MOTION_DOT":-1.01e-6,"MEAN_MOTION_DDOT":0},{"OBJECT_NAME":"COSMOS 2242","OBJECT_ID":"1993-024A","EPOCH":"2026-03-14T14:00:29.902752","MEAN_MOTION":14.96571661,"ECCENTRICITY":0.0014962,"INCLINATION":82.5151,"RA_OF_ASC_NODE":262.034,"ARG_OF_PERICENTER":291.0383,"MEAN_ANOMALY":68.9239,"EPHEMERIS_TYPE":0,"CLASSIFICATION_TYPE":"U","NORAD_CAT_ID":22626,"ELEMENT_SET_NO":999,"REV_AT_EPOCH":78112,"BSTAR":0.00023172241,"MEAN_MOTION_DOT":2.667e-5,"MEAN_MOTION_DDOT":0}]
